{"fetched_at":"2026-03-30T09:12:31Z","count":15922,"tles":[{"name":"STARLINK-30081","line1":"1 57515U 23113W   26087.81316874  .00000837  00000+0  39921-4 0  9999","line2":"2 57515  43.0016 267.7545 0000805 262.7656  97.3104 15.27578830146609","category":"Starlink"}]}